start=new Date('2021-10-29T00:00:00.000Z').valueOf();
sats=[{"MEAN_ELEMENT_THEORY":"SGP4","SITE":"AFETR","ARG_OF_PERICENTER":"85.3258","OBJECT_TYPE":"PAYLOAD","REF_FRAME":"TEME","CLASSIFICATION_TYPE":"U","FILE":"3189402","GP_ID":"188368076","TLE_LINE1":"1 48126U 21027AL  21301.76133640  .00001346  00000-0  10920-3 0  9999","ECCENTRICITY":"0.00018090","DECAY_DATE":null,"REV_AT_EPOCH":"3261","OBJECT_ID":"2021-027AL","RA_OF_ASC_NODE":"102.5535","TLE_LINE2":"2 48126  53.0520 102.5535 0001809  85.3258 274.7937 15.06407576 32610","MEAN_MOTION_DDOT":"0.0000000000000","MEAN_MOTION_DOT":"0.00001346","EPHEMERIS_TYPE":"0","COUNTRY_CODE":"US","ELEMENT_SET_NO":"999","NORAD_CAT_ID":"48126","OBJECT_NAME":"STARLINK-2467","TIME_SYSTEM":"UTC","MEAN_MOTION":"15.06407576","APOAPSIS":"548.443","INCLINATION":"53.0520","RCS_SIZE":"LARGE","PERIAPSIS":"545.938","CENTER_NAME":"EARTH","PERIOD":"95.592","EPOCH":"2021-10-28T18:16:19.464960","SEMIMAJOR_AXIS":"6925.325","BSTAR":"0.00010920000000","LAUNCH_DATE":"2021-04-07","MEAN_ANOMALY":"274.7937"},{"OBJECT_NAME":"STARLINK-2468","NORAD_CAT_ID":"48127","ELEMENT_SET_NO":"999","COUNTRY_CODE":"US","INCLINATION":"53.0551","APOAPSIS":"548.350","CENTER_NAME":"EARTH","PERIAPSIS":"546.078","RCS_SIZE":"LARGE","TIME_SYSTEM":"UTC","MEAN_MOTION":"15.06399815","BSTAR":"0.00011076000000","EPOCH":"2021-10-28T19:38:34.132704","PERIOD":"95.592","SEMIMAJOR_AXIS":"6925.349","MEAN_ANOMALY":"284.3821","LAUNCH_DATE":"2021-04-07","ARG_OF_PERICENTER":"75.7350","MEAN_ELEMENT_THEORY":"SGP4","SITE":"AFETR","TLE_LINE1":"1 48127U 21027AM  21301.81845061  .00001369  00000-0  11076-3 0  9991","GP_ID":"188368323","CLASSIFICATION_TYPE":"U","REF_FRAME":"TEME","OBJECT_TYPE":"PAYLOAD","FILE":"3189402","REV_AT_EPOCH":"3233","RA_OF_ASC_NODE":"122.2889","TLE_LINE2":"2 48127  53.0551 122.2889 0001640  75.7350 284.3821 15.06399815 32339","MEAN_MOTION_DDOT":"0.0000000000000","OBJECT_ID":"2021-027AM","DECAY_DATE":null,"ECCENTRICITY":"0.00016400","EPHEMERIS_TYPE":"0","MEAN_MOTION_DOT":"0.00001369"},{"GP_ID":"188367075","TLE_LINE1":"1 48128U 21027AN  21301.86241721 -.00251461  00000-0 -14307-1 0  9990","OBJECT_TYPE":"PAYLOAD","REF_FRAME":"TEME","CLASSIFICATION_TYPE":"U","FILE":"3189402","ARG_OF_PERICENTER":"96.8368","MEAN_ELEMENT_THEORY":"SGP4","SITE":"AFETR","EPHEMERIS_TYPE":"0","MEAN_MOTION_DOT":"-0.00251461","REV_AT_EPOCH":"3331","OBJECT_ID":"2021-027AN","TLE_LINE2":"2 48128  53.0506  52.1306 0002552  96.8368 263.2914 15.13621322 33318","MEAN_MOTION_DDOT":"0.0000000000000","RA_OF_ASC_NODE":"52.1306","ECCENTRICITY":"0.00025520","DECAY_DATE":null,"APOAPSIS":"526.931","INCLINATION":"53.0506","RCS_SIZE":"LARGE","CENTER_NAME":"EARTH","PERIAPSIS":"523.408","TIME_SYSTEM":"UTC","MEAN_MOTION":"15.13621322","NORAD_CAT_ID":"48128","OBJECT_NAME":"STARLINK-2469","COUNTRY_CODE":"US","ELEMENT_SET_NO":"999","MEAN_ANOMALY":"263.2914","LAUNCH_DATE":"2021-04-07","BSTAR":"-0.01430700000000","EPOCH":"2021-10-28T20:41:52.846944","PERIOD":"95.136","SEMIMAJOR_AXIS":"6903.304"},{"FILE":"3189402","REF_FRAME":"TEME","OBJECT_TYPE":"PAYLOAD","CLASSIFICATION_TYPE":"U","TLE_LINE1":"1 48129U 21027AP  21301.81107812  .00000896  00000-0  79087-4 0  9999","GP_ID":"188367325","SITE":"AFETR","MEAN_ELEMENT_THEORY":"SGP4","ARG_OF_PERICENTER":"82.6664","MEAN_MOTION_DOT":"0.00000896","EPHEMERIS_TYPE":"0","ECCENTRICITY":"0.00021130","DECAY_DATE":null,"OBJECT_ID":"2021-027AP","TLE_LINE2":"2 48129  53.0556 122.3204 0002113  82.6664 277.4565 15.06397451 32331","MEAN_MOTION_DDOT":"0.0000000000000","RA_OF_ASC_NODE":"122.3204","REV_AT_EPOCH":"3233","MEAN_MOTION":"15.06397451","TIME_SYSTEM":"UTC","RCS_SIZE":"LARGE","CENTER_NAME":"EARTH","PERIAPSIS":"545.758","APOAPSIS":"548.685","INCLINATION":"53.0556","COUNTRY_CODE":"US","ELEMENT_SET_NO":"999","NORAD_CAT_ID":"48129","OBJECT_NAME":"STARLINK-2471","LAUNCH_DATE":"2021-04-07","MEAN_ANOMALY":"277.4565","SEMIMAJOR_AXIS":"6925.356","PERIOD":"95.592","EPOCH":"2021-10-28T19:27:57.149568","BSTAR":"0.00007908700000"},{"ARG_OF_PERICENTER":"87.8535","SITE":"AFETR","MEAN_ELEMENT_THEORY":"SGP4","GP_ID":"188367576","TLE_LINE1":"1 48130U 21027AQ  21301.86680592 -.00000952  00000-0 -45039-4 0  9992","FILE":"3189402","REF_FRAME":"TEME","OBJECT_TYPE":"PAYLOAD","CLASSIFICATION_TYPE":"U","OBJECT_ID":"2021-027AQ","RA_OF_ASC_NODE":"127.0801","TLE_LINE2":"2 48130  53.0556 127.0801 0001457  87.8535 272.2621 15.06394548 32275","MEAN_MOTION_DDOT":"0.0000000000000","REV_AT_EPOCH":"3227","ECCENTRICITY":"0.00014570","DECAY_DATE":null,"EPHEMERIS_TYPE":"0","MEAN_MOTION_DOT":"-0.00000952","NORAD_CAT_ID":"48130","OBJECT_NAME":"STARLINK-2472","COUNTRY_CODE":"US","ELEMENT_SET_NO":"999","RCS_SIZE":"LARGE","PERIAPSIS":"546.221","CENTER_NAME":"EARTH","APOAPSIS":"548.239","INCLINATION":"53.0556","MEAN_MOTION":"15.06394548","TIME_SYSTEM":"UTC","BSTAR":"-0.00004503900000","SEMIMAJOR_AXIS":"6925.365","PERIOD":"95.592","EPOCH":"2021-10-28T20:48:12.031488","MEAN_ANOMALY":"272.2621","LAUNCH_DATE":"2021-04-07"},{"COUNTRY_CODE":"US","ELEMENT_SET_NO":"999","NORAD_CAT_ID":"48131","OBJECT_NAME":"STARLINK-2473","MEAN_MOTION":"15.06393593","TIME_SYSTEM":"UTC","RCS_SIZE":"LARGE","CENTER_NAME":"EARTH","PERIAPSIS":"546.219","APOAPSIS":"548.248","INCLINATION":"53.0553","SEMIMAJOR_AXIS":"6925.368","PERIOD":"95.593","EPOCH":"2021-10-28T18:05:41.351712","BSTAR":"-0.00002383600000","LAUNCH_DATE":"2021-04-07","MEAN_ANOMALY":"278.1069","SITE":"AFETR","MEAN_ELEMENT_THEORY":"SGP4","ARG_OF_PERICENTER":"82.0086","FILE":"3189402","OBJECT_TYPE":"PAYLOAD","REF_FRAME":"TEME","CLASSIFICATION_TYPE":"U","TLE_LINE1":"1 48131U 21027AR  21301.75395083 -.00000636  00000-0 -23836-4 0  9999","GP_ID":"188367823","ECCENTRICITY":"0.00014650","DECAY_DATE":null,"OBJECT_ID":"2021-027AR","TLE_LINE2":"2 48131  53.0553 102.5959 0001465  82.0086 278.1069 15.06393593 32609","RA_OF_ASC_NODE":"102.5959","MEAN_MOTION_DDOT":"0.0000000000000","REV_AT_EPOCH":"3260","MEAN_MOTION_DOT":"-0.00000636","EPHEMERIS_TYPE":"0"},{"NORAD_CAT_ID":"48132","OBJECT_NAME":"STARLINK-2474","COUNTRY_CODE":"US","ELEMENT_SET_NO":"999","APOAPSIS":"548.421","INCLINATION":"53.0555","RCS_SIZE":"LARGE","CENTER_NAME":"EARTH","PERIAPSIS":"546.015","TIME_SYSTEM":"UTC","MEAN_MOTION":"15.06398412","BSTAR":"-0.00005699400000","EPOCH":"2021-10-28T20:47:34.743840","PERIOD":"95.592","SEMIMAJOR_AXIS":"6925.353","MEAN_ANOMALY":"277.1475","LAUNCH_DATE":"2021-04-07","ARG_OF_PERICENTER":"82.9711","MEAN_ELEMENT_THEORY":"SGP4","SITE":"AFETR","GP_ID":"188366575","TLE_LINE1":"1 48132U 21027AS  21301.86637435 -.00001130  00000-0 -56994-4 0  9993","REF_FRAME":"TEME","OBJECT_TYPE":"PAYLOAD","CLASSIFICATION_TYPE":"U","FILE":"3189402","REV_AT_EPOCH":"3233","OBJECT_ID":"2021-027AS","TLE_LINE2":"2 48132  53.0555 122.0763 0001737  82.9711 277.1475 15.06398412 32333","MEAN_MOTION_DDOT":"0.0000000000000","RA_OF_ASC_NODE":"122.0763","ECCENTRICITY":"0.00017370","DECAY_DATE":null,"EPHEMERIS_TYPE":"0","MEAN_MOTION_DOT":"-0.00001130"},{"CLASSIFICATION_TYPE":"U","REF_FRAME":"TEME","OBJECT_TYPE":"PAYLOAD","FILE":"3189402","TLE_LINE1":"1 48133U 21027AT  21301.86267692  .00001886  00000-0  14542-3 0  9996","GP_ID":"188366825","MEAN_ELEMENT_THEORY":"SGP4","SITE":"AFETR","ARG_OF_PERICENTER":"90.1822","MEAN_MOTION_DOT":"0.00001886","EPHEMERIS_TYPE":"0","DECAY_DATE":null,"ECCENTRICITY":"0.00015890","REV_AT_EPOCH":"3234","TLE_LINE2":"2 48133  53.0548 122.0925 0001589  90.1822 269.9349 15.06406569 32348","MEAN_MOTION_DDOT":"0.0000000000000","RA_OF_ASC_NODE":"122.0925","OBJECT_ID":"2021-027AT","TIME_SYSTEM":"UTC","MEAN_MOTION":"15.06406569","INCLINATION":"53.0548","APOAPSIS":"548.294","CENTER_NAME":"EARTH","PERIAPSIS":"546.093","RCS_SIZE":"LARGE","ELEMENT_SET_NO":"999","COUNTRY_CODE":"US","OBJECT_NAME":"STARLINK-2475","NORAD_CAT_ID":"48133","LAUNCH_DATE":"2021-04-07","MEAN_ANOMALY":"269.9349","PERIOD":"95.592","EPOCH":"2021-10-28T20:42:15.285888","SEMIMAJOR_AXIS":"6925.328","BSTAR":"0.00014542000000"},{"EPHEMERIS_TYPE":"0","MEAN_MOTION_DOT":"0.00000952","REV_AT_EPOCH":"3232","OBJECT_ID":"2021-027AU","RA_OF_ASC_NODE":"122.4551","TLE_LINE2":"2 48134  53.0553 122.4551 0001864  83.8684 276.2518 15.06407494 32320","MEAN_MOTION_DDOT":"0.0000000000000","ECCENTRICITY":"0.00018640","DECAY_DATE":null,"TLE_LINE1":"1 48134U 21027AU  21301.78157948  .00000952  00000-0  82804-4 0  9990","GP_ID":"188368077","OBJECT_TYPE":"PAYLOAD","REF_FRAME":"TEME","CLASSIFICATION_TYPE":"U","FILE":"3189402","ARG_OF_PERICENTER":"83.8684","MEAN_ELEMENT_THEORY":"SGP4","SITE":"AFETR","MEAN_ANOMALY":"276.2518","LAUNCH_DATE":"2021-04-07","BSTAR":"0.00008280400000","PERIOD":"95.592","EPOCH":"2021-10-28T18:45:28.467072","SEMIMAJOR_AXIS":"6925.326","APOAPSIS":"548.481","INCLINATION":"53.0553","RCS_SIZE":"LARGE","CENTER_NAME":"EARTH","PERIAPSIS":"545.900","TIME_SYSTEM":"UTC","MEAN_MOTION":"15.06407494","NORAD_CAT_ID":"48134","OBJECT_NAME":"STARLINK-2476","COUNTRY_CODE":"US","ELEMENT_SET_NO":"999"},{"CENTER_NAME":"EARTH","PERIAPSIS":"545.923","RCS_SIZE":"LARGE","INCLINATION":"53.0547","APOAPSIS":"548.531","MEAN_MOTION":"15.06395748","TIME_SYSTEM":"UTC","OBJECT_NAME":"STARLINK-2478","NORAD_CAT_ID":"48135","ELEMENT_SET_NO":"999","COUNTRY_CODE":"US","MEAN_ANOMALY":"288.1354","LAUNCH_DATE":"2021-04-07","BSTAR":"0.00008296200000","SEMIMAJOR_AXIS":"6925.362","EPOCH":"2021-10-28T20:00:25.824672","PERIOD":"95.592","GP_ID":"188368324","TLE_LINE1":"1 48135U 21027AV  21301.83363223  .00000954  00000-0  82962-4 0  9999","FILE":"3189402","CLASSIFICATION_TYPE":"U","OBJECT_TYPE":"PAYLOAD","REF_FRAME":"TEME","ARG_OF_PERICENTER":"71.9840","SITE":"AFETR","MEAN_ELEMENT_THEORY":"SGP4","EPHEMERIS_TYPE":"0","MEAN_MOTION_DOT":"0.00000954","TLE_LINE2":"2 48135  53.0547 127.2224 0001883  71.9840 288.1354 15.06395748 32268","MEAN_MOTION_DDOT":"0.0000000000000","RA_OF_ASC_NODE":"127.2224","OBJECT_ID":"2021-027AV","REV_AT_EPOCH":"3226","DECAY_DATE":null,"ECCENTRICITY":"0.00018830"}];
